NORAD_CAT_ID,OBJECT_NAME,OBJECT_TYPE,EPOCH,MEAN_MOTION,ECCENTRICITY,INCLINATION,RA_OF_ASC_NODE,ARG_OF_PERICENTER,MEAN_ANOMALY,BSTAR,MEAN_MOTION_DOT,MEAN_MOTION_DDOT,TLE_LINE0,TLE_LINE1,TLE_LINE2,SEMIMAJOR_AXIS,PERIOD,APOGEE,PERIGEE,DECAYED
53993.0,STARLINK-5121,PAYLOAD,2024-01-17 13:50:29,15.08844193,0.0001427,53.2164,119.9143,102.3855,257.7297,2.1477e-05,5.4e-07,0.0,0 STARLINK-5121,1 53993U 22125AF  24017.57672754  .00000054  00000-0  21477-4 0  9992,2 53993  53.2164 119.9143 0001427 102.3855 257.7297 15.08844193 71457,6917.868,95.437,540.72,538.745,0.0
53993.0,STARLINK-5121,PAYLOAD,2024-01-18 12:05:53,15.08838947,0.00015,53.2174,115.751,93.6061,266.5103,0.00010314,1.354e-05,0.0,0 STARLINK-5121,1 53993U 22125AF  24018.50409044  .00001354  00000-0  10314-3 0  9997,2 53993  53.2174 115.7510 0001500  93.6061 266.5103 15.08838947 71671,6917.884,95.438,540.786,538.711,0.0
53993.0,STARLINK-5121,PAYLOAD,2024-01-18 13:41:16,15.08842462,0.0001583,53.2185,115.4534,91.8398,268.2776,0.00012456,1.695e-05,0.0,0 STARLINK-5121,1 53993U 22125AF  24018.57033017  .00001695  00000-0  12456-3 0  9994,2 53993  53.2185 115.4534 0001583  91.8398 268.2776 15.08842462 71605,6917.873,95.437,540.833,538.643,0.0
53993.0,STARLINK-5121,PAYLOAD,2024-01-19 13:32:03,15.08847789,0.0001872,53.2182,110.9929,61.3789,298.7391,4.5852e-05,4.42e-06,0.0,0 STARLINK-5121,1 53993U 22125AF  24019.56393161  .00000442  00000-0  45852-4 0  9999,2 53993  53.2182 110.9929 0001872  61.3789 298.7391 15.08847789 71751,6917.857,95.437,541.017,538.427,0.0
53993.0,STARLINK-5121,PAYLOAD,2024-01-19 15:07:26,15.0885351,0.0001585,53.2184,110.6946,79.3271,280.79,9.0423e-05,1.152e-05,0.0,0 STARLINK-5121,1 53993U 22125AF  24019.63016486  .00001152  00000-0  90423-4 0  9992,2 53993  53.2184 110.6946 0001585  79.3271 280.7900 15.08853510 71841,6917.839,95.437,540.801,538.608,0.0
53993.0,STARLINK-5121,PAYLOAD,2024-01-20 11:47:28,15.08833735,0.0001652,53.2182,106.8348,95.0595,265.0586,-8.2788e-05,-1.605e-05,0.0,0 STARLINK-5121,1 53993U 22125AF  24020.49130593 -.00001605  00000-0 -82788-4 0  9994,2 53993  53.2182 106.8348 0001652  95.0595 265.0586 15.08833735 71978,6917.9,95.438,540.907,538.622,0.0
53993.0,STARLINK-5121,PAYLOAD,2024-01-20 13:22:52,15.08834747,0.0001668,53.2189,106.5366,56.4015,303.7136,-6.4368e-05,-1.312e-05,0.0,0 STARLINK-5121,1 53993U 22125AF  24020.55754630 -.00001312  00000-0 -64368-4 0  9994,2 53993  53.2189 106.5366 0001668  56.4015 303.7136 15.08834747 71905,6917.896,95.438,540.915,538.608,0.0
53993.0,STARLINK-5121,PAYLOAD,2024-01-20 14:58:14,15.0883822,0.0001442,53.2188,106.2332,64.7643,295.3499,-3.2469e-05,-8.05e-06,0.0,0 STARLINK-5121,1 53993U 22125AF  24020.62378210 -.00000805  00000-0 -32469-4 0  9991,2 53993  53.2188 106.2332 0001442  64.7643 295.3499 15.08838220 71912,6917.886,95.438,540.748,538.753,0.0
53993.0,STARLINK-5121,PAYLOAD,2024-01-21 11:38:14,15.08861269,0.0001623,53.2184,102.3696,71.2964,288.8204,0.00011737,1.581e-05,0.0,0 STARLINK-5121,1 53993U 22125AF  24021.48488438  .00001581  00000-0  11737-3 0  9994,2 53993  53.2184 102.3696 0001623  71.2964 288.8204 15.08861269 72122,6917.815,95.436,540.803,538.558,0.0
53993.0,STARLINK-5121,PAYLOAD,2024-01-21 14:49:00,15.08859093,0.0001876,53.2191,101.771,66.3661,293.7528,0.0001178,1.588e-05,0.0,0 STARLINK-5121,1 53993U 22125AF  24021.61736659  .00001588  00000-0  11780-3 0  9995,2 53993  53.2191 101.7710 0001876  66.3661 293.7528 15.08859093 72068,6917.822,95.436,540.985,538.389,0.0
53993.0,STARLINK-5121,PAYLOAD,2024-01-22 11:29:01,15.08846925,0.0001426,53.217,97.9118,79.3477,280.7676,0.00011261,1.505e-05,0.0,0 STARLINK-5121,1 53993U 22125AF  24022.47849364  .00001505  00000-0  11261-3 0  9991,2 53993  53.2170  97.9118 0001426  79.3477 280.7676 15.08846925 72276,6917.859,95.437,540.711,538.738,0.0
53993.0,STARLINK-5121,PAYLOAD,2024-01-23 11:19:48,15.08850902,0.0001543,53.2178,93.4474,92.8466,267.2703,-4.6024e-05,-1.021e-05,0.0,0 STARLINK-5121,1 53993U 22125AF  24023.47209173 -.00001021  00000-0 -46024-4 0  9991,2 53993  53.2178  93.4474 0001543  92.8466 267.2703 15.08850902 72347,6917.847,95.437,540.779,538.645,0.0
53993.0,STARLINK-5121,PAYLOAD,2024-01-24 09:35:13,15.088392,0.0001511,53.2177,89.2863,102.3554,257.7607,-3.0593e-05,-7.75e-06,0.0,0 STARLINK-5121,1 53993U 22125AF  24024.39945954 -.00000775  00000-0 -30593-4 0  9996,2 53993  53.2177  89.2863 0001511 102.3554 257.7607 15.08839200 72560,6917.883,95.438,540.793,538.703,0.0
53993.0,STARLINK-5121,PAYLOAD,2024-01-24 19:07:31,15.08845288,0.0001476,53.2173,87.5012,105.4519,254.6636,2.9911e-05,1.88e-06,0.0,0 STARLINK-5121,1 53993U 22125AF  24024.79689353  .00000188  00000-0  29911-4 0  9996,2 53993  53.2173  87.5012 0001476 105.4519 254.6636 15.08845288 72547,6917.864,95.437,540.75,538.708,0.0
53993.0,STARLINK-5121,PAYLOAD,2024-01-25 09:26:00,15.08838143,0.0001516,53.2168,84.8197,106.6182,253.4976,-2.4842e-05,-6.83e-06,0.0,0 STARLINK-5121,1 53993U 22125AF  24025.39306292 -.00000683  00000-0 -24842-4 0  9991,2 53993  53.2168  84.8197 0001516 106.6182 253.4976 15.08838143 72714,6917.886,95.438,540.8,538.702,0.0
53993.0,STARLINK-5121,PAYLOAD,2024-01-26 10:52:10,15.08823668,0.0001537,53.2183,80.0675,84.1002,276.0165,0.00042833,6.532e-05,0.0,0 STARLINK-5121,1 53993U 22125AF  24026.45290380  .00006532  00000-0  42833-3 0  9995,2 53993  53.2183  80.0675 0001537  84.1002 276.0165 15.08823668 72878,6917.93,95.439,540.859,538.732,0.0
53993.0,STARLINK-5121,PAYLOAD,2024-01-27 12:18:20,15.08849494,0.0001559,53.2181,75.3084,75.6386,284.4779,0.00015344,2.155e-05,0.0,0 STARLINK-5121,1 53993U 22125AF  24027.51273469  .00002155  00000-0  15344-3 0  9996,2 53993  53.2181  75.3084 0001559  75.6386 284.4779 15.08849494 73039,6917.851,95.437,540.795,538.638,0.0
53993.0,STARLINK-5121,PAYLOAD,2024-01-28 02:36:49,15.08839179,0.0001897,53.2181,72.6397,67.2112,292.908,-5.3102e-06,-3.73e-06,0.0,0 STARLINK-5121,1 53993U 22125AF  24028.10890713 -.00000373  00000-0 -53102-5 0  9997,2 53993  53.2181  72.6397 0001897  67.2112 292.9080 15.08839179 73123,6917.883,95.438,541.06,538.436,0.0
53993.0,STARLINK-5121,PAYLOAD,2024-01-28 12:09:08,15.08842734,0.0001719,53.2184,70.8519,79.2237,280.8948,2.2583e-05,7.1e-07,0.0,0 STARLINK-5121,1 53993U 22125AF  24028.50634366  .00000071  00000-0  22583-4 0  9992,2 53993  53.2184  70.8519 0001719  79.2237 280.8948 15.08842734 73104,6917.872,95.437,540.926,538.548,0.0
53993.0,STARLINK-5121,PAYLOAD,2024-01-29 11:59:54,15.08848985,0.0001524,53.2174,66.3893,93.7842,266.3325,6.0749e-05,6.79e-06,0.0,0 STARLINK-5121,1 53993U 22125AF  24029.49993692  .00000679  00000-0  60749-4 0  9991,2 53993  53.2174  66.3893 0001524  93.7842 266.3325 15.08848985 73332,6917.853,95.437,540.772,538.664,0.0
53993.0,STARLINK-5121,PAYLOAD,2024-01-30 11:50:41,15.0884155,0.0001658,53.2179,61.9289,110.0412,250.0759,9.4216e-05,1.212e-05,0.0,0 STARLINK-5121,1 53993U 22125AF  24030.49354164  .00001212  00000-0  94216-4 0  9998,2 53993  53.2179  61.9289 0001658 110.0412 250.0759 15.08841550 73489,6917.876,95.437,540.888,538.594,0.0
53993.0,STARLINK-5121,PAYLOAD,2024-01-31 11:41:29,15.08838497,0.0001778,53.2187,57.4657,108.4088,251.7097,2.5926e-05,1.25e-06,0.0,0 STARLINK-5121,1 53993U 22125AF  24031.48714625  .00000125  00000-0  25926-4 0  9994,2 53993  53.2187  57.4657 0001778 108.4088 251.7097 15.08838497 73636,6917.885,95.438,540.98,538.52,0.0
53993.0,STARLINK-5121,PAYLOAD,2024-02-01 11:32:16,15.08834689,0.0001742,53.2185,53.0062,109.047,251.0711,2.9839e-05,1.87e-06,0.0,0 STARLINK-5121,1 53993U 22125AF  24032.48075066  .00000187  00000-0  29839-4 0  9999,2 53993  53.2185  53.0062 0001742 109.0470 251.0711 15.08834689 73702,6917.897,95.438,540.967,538.557,0.0
53993.0,STARLINK-5121,PAYLOAD,2024-02-02 06:36:54,15.08837885,0.0001653,53.2184,49.4385,103.7598,256.3578,5.2683e-05,5.5e-06,0.0,0 STARLINK-5121,1 53993U 22125AF  24033.27563033  .00000550  00000-0  52683-4 0  9990,2 53993  53.2184  49.4385 0001653 103.7598 256.3578 15.08837885 73824,6917.887,95.438,540.895,538.608,0.0
53993.0,STARLINK-5121,PAYLOAD,2024-02-03 09:38:27,15.08843916,0.0001545,53.2181,44.384,99.098,261.0187,0.00010051,1.312e-05,0.0,0 STARLINK-5121,1 53993U 22125AF  24034.40170772  .00001312  00000-0  10051-3 0  9999,2 53993  53.2181  44.3840 0001545  99.0980 261.0187 15.08843916 74072,6917.868,95.437,540.802,538.665,0.0
53993.0,STARLINK-5121,PAYLOAD,2024-02-04 09:29:14,15.08843468,0.0001643,53.2189,39.9172,82.6139,277.504,4.7823e-05,4.73e-06,0.0,0 STARLINK-5121,1 53993U 22125AF  24035.39531075  .00000473  00000-0  47823-4 0  9990,2 53993  53.2189  39.9172 0001643  82.6139 277.5040 15.08843468 74220,6917.87,95.437,540.871,538.598,0.0
53993.0,STARLINK-5121,PAYLOAD,2024-02-05 06:09:15,15.08844915,0.0001854,53.2192,36.0513,68.6358,291.4832,5.1793e-05,5.36e-06,0.0,0 STARLINK-5121,1 53993U 22125AF  24036.25642990  .00000536  00000-0  51793-4 0  9996,2 53993  53.2192  36.0513 0001854  68.6358 291.4832 15.08844915 74279,6917.865,95.437,541.013,538.448,0.0
53993.0,STARLINK-5121,PAYLOAD,2024-02-06 04:24:40,15.08831671,0.0001549,53.2182,31.8888,85.8144,274.3025,-4.7916e-05,-1.05e-05,0.0,0 STARLINK-5121,1 53993U 22125AF  24037.18380292 -.00001050  00000-0 -47916-4 0  9999,2 53993  53.2182  31.8888 0001549  85.8144 274.3025 15.08831671 74494,6917.906,95.438,540.842,538.699,0.0
53993.0,STARLINK-5121,PAYLOAD,2024-02-06 06:00:03,15.08831385,0.0001503,53.2189,31.591,108.4841,251.6314,-6.0312e-05,-1.247e-05,0.0,0 STARLINK-5121,1 53993U 22125AF  24037.25004238 -.00001247  00000-0 -60312-4 0  9993,2 53993  53.2189  31.5910 0001503 108.4841 251.6314 15.08831385 74424,6917.907,95.438,540.811,538.732,0.0
53993.0,STARLINK-5121,PAYLOAD,2024-02-07 04:15:27,15.08837985,0.0001863,53.2194,27.4411,78.7311,281.3891,9.0788e-05,1.157e-05,0.0,0 STARLINK-5121,1 53993U 22125AF  24038.17739937  .00001157  00000-0  90788-4 0  9994,2 53993  53.2194  27.4411 0001863  78.7311 281.3891 15.08837985 74646,6917.887,95.438,541.04,538.463,0.0
